{
  "type": "FeatureCollection",
  "features": [
    {
      "type": "Feature",
      "properties": {
        "norad_id": 66497,
        "name": "STARLINK-35899",
        "group": "last-30-days",
        "lat": -5.072602375781806,
        "lon": -14.99535259471384,
        "alt_km": 397.34613127562807,
        "timestamp": "2025-12-06T20:37:54.812849+00:00",
        "meta_object_name": "STARLINK-35899",
        "meta_object_id": "2025-263N",
        "meta_epoch": "2025-12-06T14:00:01.999872",
        "meta_mean_motion": 15.58011635,
        "meta_eccentricity": 0.00016083,
        "meta_inclination": 42.9995,
        "meta_ra_of_asc_node": 161.1715,
        "meta_arg_of_pericenter": 271.8097,
        "meta_mean_anomaly": 164.5926,
        "meta_ephemeris_type": 0,
        "meta_classification_type": "U",
        "meta_norad_cat_id": 66497,
        "meta_element_set_no": 999,
        "meta_rev_at_epoch": 464,
        "meta_bstar": -0.030787916,
        "meta_mean_motion_dot": -0.02110323,
        "meta_mean_motion_ddot": 0,
        "tle_line1": "1 66497U 25263N   25340.58335648 -.02110323  00000+0 -30788-1 0  9996",
        "tle_line2": "2 66497  42.9995 161.1715 0001608 271.8097 164.5926 15.58011635  4645"
      },
      "geometry": {
        "type": "Point",
        "coordinates": [
          -14.99535259471384,
          -5.072602375781806
        ]
      }
    },
    {
      "type": "Feature",
      "properties": {
        "norad_id": 66498,
        "name": "STARLINK-35907",
        "group": "last-30-days",
        "lat": -6.376128269028973,
        "lon": -13.579552373654511,
        "alt_km": 397.5045301285627,
        "timestamp": "2025-12-06T20:37:54.812859+00:00",
        "meta_object_name": "STARLINK-35907",
        "meta_object_id": "2025-263P",
        "meta_epoch": "2025-12-06T14:00:01.999872",
        "meta_mean_motion": 15.5801194,
        "meta_eccentricity": 0.00013861,
        "meta_inclination": 42.9995,
        "meta_ra_of_asc_node": 161.166,
        "meta_arg_of_pericenter": 273.015,
        "meta_mean_anomaly": 165.3089,
        "meta_ephemeris_type": 0,
        "meta_classification_type": "U",
        "meta_norad_cat_id": 66498,
        "meta_element_set_no": 999,
        "meta_rev_at_epoch": 464,
        "meta_bstar": -0.030836935,
        "meta_mean_motion_dot": -0.0211318,
        "meta_mean_motion_ddot": 0,
        "tle_line1": "1 66498U 25263P   25340.58335648 -.02113180  00000+0 -30837-1 0  9996",
        "tle_line2": "2 66498  42.9995 161.1660 0001386 273.0150 165.3089 15.58011940  4640"
      },
      "geometry": {
        "type": "Point",
        "coordinates": [
          -13.579552373654511,
          -6.376128269028973
        ]
      }
    },
    {
      "type": "Feature",
      "properties": {
        "norad_id": 66499,
        "name": "STARLINK-35816",
        "group": "last-30-days",
        "lat": -8.961605385563782,
        "lon": -10.732753406243827,
        "alt_km": 397.707880031433,
        "timestamp": "2025-12-06T20:37:54.812870+00:00",
        "meta_object_name": "STARLINK-35816",
        "meta_object_id": "2025-263Q",
        "meta_epoch": "2025-12-06T14:00:01.999872",
        "meta_mean_motion": 15.58008439,
        "meta_eccentricity": 0.00014152,
        "meta_inclination": 42.9997,
        "meta_ra_of_asc_node": 161.1571,
        "meta_arg_of_pericenter": 272.1252,
        "meta_mean_anomaly": 170.035,
        "meta_ephemeris_type": 0,
        "meta_classification_type": "U",
        "meta_norad_cat_id": 66499,
        "meta_element_set_no": 999,
        "meta_rev_at_epoch": 464,
        "meta_bstar": -0.030780294,
        "meta_mean_motion_dot": -0.02109495,
        "meta_mean_motion_ddot": 0,
        "tle_line1": "1 66499U 25263Q   25340.58335648 -.02109495  00000+0 -30780-1 0  9998",
        "tle_line2": "2 66499  42.9997 161.1571 0001415 272.1252 170.0350 15.58008439  4643"
      },
      "geometry": {
        "type": "Point",
        "coordinates": [
          -10.732753406243827,
          -8.961605385563782
        ]
      }
    },
    {
      "type": "Feature",
      "properties": {
        "norad_id": 66500,
        "name": "STARLINK-35894",
        "group": "last-30-days",
        "lat": 13.253707287809405,
        "lon": -35.03651737373918,
        "alt_km": 407.3699460672178,
        "timestamp": "2025-12-06T20:37:54.812882+00:00",
        "meta_object_name": "STARLINK-35894",
        "meta_object_id": "2025-263R",
        "meta_epoch": "2025-12-06T14:00:01.999872",
        "meta_mean_motion": 15.54009963,
        "meta_eccentricity": 0.00018219,
        "meta_inclination": 42.9993,
        "meta_ra_of_asc_node": 161.2281,
        "meta_arg_of_pericenter": 264.4535,
        "meta_mean_anomaly": 148.9279,
        "meta_ephemeris_type": 0,
        "meta_classification_type": "U",
        "meta_norad_cat_id": 66500,
        "meta_element_set_no": 999,
        "meta_rev_at_epoch": 464,
        "meta_bstar": -0.04033786,
        "meta_mean_motion_dot": -0.02346308,
        "meta_mean_motion_ddot": 0,
        "tle_line1": "1 66500U 25263R   25340.58335648 -.02346308  00000+0 -40338-1 0  9997",
        "tle_line2": "2 66500  42.9993 161.2281 0001821 264.4535 148.9279 15.54009963  4643"
      },
      "geometry": {
        "type": "Point",
        "coordinates": [
          -35.03651737373918,
          13.253707287809405
        ]
      }
    },
    {
      "type": "Feature",
      "properties": {
        "norad_id": 66501,
        "name": "STARLINK-35897",
        "group": "last-30-days",
        "lat": -10.24393672696494,
        "lon": -9.298195209262214,
        "alt_km": 397.86779509294956,
        "timestamp": "2025-12-06T20:37:54.812895+00:00",
        "meta_object_name": "STARLINK-35897",
        "meta_object_id": "2025-263S",
        "meta_epoch": "2025-12-06T14:00:01.999872",
        "meta_mean_motion": 15.58012348,
        "meta_eccentricity": 0.0001551,
        "meta_inclination": 42.9997,
        "meta_ra_of_asc_node": 161.1521,
        "meta_arg_of_pericenter": 275.5969,
        "meta_mean_anomaly": 168.4755,
        "meta_ephemeris_type": 0,
        "meta_classification_type": "U",
        "meta_norad_cat_id": 66501,
        "meta_element_set_no": 999,
        "meta_rev_at_epoch": 464,
        "meta_bstar": -0.030826796,
        "meta_mean_motion_dot": -0.02112705,
        "meta_mean_motion_ddot": 0,
        "tle_line1": "1 66501U 25263S   25340.58335648 -.02112705  00000+0 -30827-1 0  9992",
        "tle_line2": "2 66501  42.9997 161.1521 0001551 275.5969 168.4755 15.58012348  4649"
      },
      "geometry": {
        "type": "Point",
        "coordinates": [
          -9.298195209262214,
          -10.24393672696494
        ]
      }
    },
    {
      "type": "Feature",
      "properties": {
        "norad_id": 66502,
        "name": "STARLINK-35922",
        "group": "last-30-days",
        "lat": -14.058358316779872,
        "lon": -4.907514039428666,
        "alt_km": 398.07105967663847,
        "timestamp": "2025-12-06T20:37:54.812905+00:00",
        "meta_object_name": "STARLINK-35922",
        "meta_object_id": "2025-263T",
        "meta_epoch": "2025-12-06T14:00:01.999872",
        "meta_mean_motion": 15.58009056,
        "meta_eccentricity": 0.00014504,
        "meta_inclination": 42.9997,
        "meta_ra_of_asc_node": 161.137,
        "meta_arg_of_pericenter": 271.2405,
        "meta_mean_anomaly": 178.587,
        "meta_ephemeris_type": 0,
        "meta_classification_type": "U",
        "meta_norad_cat_id": 66502,
        "meta_element_set_no": 999,
        "meta_rev_at_epoch": 464,
        "meta_bstar": -0.030781996,
        "meta_mean_motion_dot": -0.02109667,
        "meta_mean_motion_ddot": 0,
        "tle_line1": "1 66502U 25263T   25340.58335648 -.02109667  00000+0 -30782-1 0  9996",
        "tle_line2": "2 66502  42.9997 161.1370 0001450 271.2405 178.5870 15.58009056  4640"
      },
      "geometry": {
        "type": "Point",
        "coordinates": [
          -4.907514039428666,
          -14.058358316779872
        ]
      }
    },
    {
      "type": "Feature",
      "properties": {
        "norad_id": 66503,
        "name": "STARLINK-35917",
        "group": "last-30-days",
        "lat": -16.555606798841453,
        "lon": -1.9020272791683914,
        "alt_km": 398.2851023958665,
        "timestamp": "2025-12-06T20:37:54.812916+00:00",
        "meta_object_name": "STARLINK-35917",
        "meta_object_id": "2025-263U",
        "meta_epoch": "2025-12-06T14:00:01.999872",
        "meta_mean_motion": 15.58010186,
        "meta_eccentricity": 0.00014173,
        "meta_inclination": 42.9997,
        "meta_ra_of_asc_node": 161.1277,
        "meta_arg_of_pericenter": 272.9925,
        "meta_mean_anomaly": 180.6688,
        "meta_ephemeris_type": 0,
        "meta_classification_type": "U",
        "meta_norad_cat_id": 66503,
        "meta_element_set_no": 999,
        "meta_rev_at_epoch": 464,
        "meta_bstar": -0.030820342,
        "meta_mean_motion_dot": -0.02112064,
        "meta_mean_motion_ddot": 0,
        "tle_line1": "1 66503U 25263U   25340.58335648 -.02112064  00000+0 -30820-1 0  9995",
        "tle_line2": "2 66503  42.9997 161.1277 0001417 272.9925 180.6688 15.58010186  4642"
      },
      "geometry": {
        "type": "Point",
        "coordinates": [
          -1.9020272791683914,
          -16.555606798841453
        ]
      }
    }
  ]
}